[{"OBJECT_NAME":"STARLINK-35467","OBJECT_ID":"2025-253AA","EPOCH":"2026-03-09T10:34:48.552672","MEAN_MOTION":15.27587843,"ECCENTRICITY":0.00033084,"INCLINATION":43.002,"RA_OF_ASC_NODE":214.1513,"ARG_OF_PERICENTER":304.535,"MEAN_ANOMALY":55.5189,"EPHEMERIS_TYPE":0,"CLASSIFICATION_TYPE":"U","NORAD_CAT_ID":66343,"ELEMENT_SET_NO":999,"REV_AT_EPOCH":2020,"BSTAR":0.0011817307,"MEAN_MOTION_DOT":0.0003241,"MEAN_MOTION_DDOT":0},{"OBJECT_NAME":"OBJECT A","OBJECT_ID":"2025-234A","EPOCH":"2026-03-09T23:03:34.210368","MEAN_MOTION":15.32505956,"ECCENTRICITY":0.00130678,"INCLINATION":97.4388,"RA_OF_ASC_NODE":139.352,"ARG_OF_PERICENTER":148.634,"MEAN_ANOMALY":211.5684,"EPHEMERIS_TYPE":0,"CLASSIFICATION_TYPE":"U","NORAD_CAT_ID":66053,"ELEMENT_SET_NO":999,"REV_AT_EPOCH":2164,"BSTAR":0.0014840662,"MEAN_MOTION_DOT":0.00046856,"MEAN_MOTION_DDOT":0}]
